OBJECT_NAME,OBJECT_ID,EPOCH,MEAN_MOTION,ECCENTRICITY,INCLINATION,RA_OF_ASC_NODE,ARG_OF_PERICENTER,MEAN_ANOMALY,EPHEMERIS_TYPE,CLASSIFICATION_TYPE,NORAD_CAT_ID,ELEMENT_SET_NO,REV_AT_EPOCH,BSTAR,MEAN_MOTION_DOT,MEAN_MOTION_DDOT
SKYSAT-C1,2016-040C,2026-07-16T12:31:43.504320,15.36761755,.00002432,96.9547,227.6581,252.6645,107.4574,0,U,41601,999,56237,.14436253E-3,.511E-4,0
LAPAN-A3,2016-040E,2026-07-16T15:01:16.400064,15.33282837,.00082434,97.1506,192.8099,269.8538,90.1760,0,U,41603,999,55932,.55574887E-4,.1714E-4,0
GAOFEN-3,2016-049A,2026-07-16T15:20:07.791648,14.42218316,.00017611,98.4011,204.9808,83.4546,276.6845,0,U,41727,999,52289,-.30615868E-4,-.144E-5,0
SKYSAT-C4,2016-058B,2026-07-16T12:44:14.231328,15.49464942,.0003469,96.9160,218.0900,115.6545,244.5066,0,U,41771,999,55001,.19799687E-3,.10806E-3,0
SKYSAT-C5,2016-058C,2026-07-16T01:25:36.323616,15.33726186,.00026394,97.0452,236.4040,158.1858,201.9499,0,U,41772,999,54817,.12489111E-3,.3999E-4,0
SKYSAT-C2,2016-058D,2026-07-16T12:26:57.134976,15.42698972,.00012265,97.0156,218.5207,347.0045,13.1171,0,U,41773,999,54957,.16199963E-3,.6986E-4,0
SKYSAT-C3,2016-058E,2026-07-16T01:42:57.046176,15.53733168,.00025586,96.8989,226.8279,131.8662,228.2811,0,U,41774,999,55059,.23539668E-3,.14988E-3,0
ALSAT-1B,2016-059C,2026-07-16T14:24:13.118976,14.72296311,.00103819,97.7749,205.0950,125.7066,234.5110,0,U,41785,999,52490,.90113957E-4,.523E-5,0
PATHFINDER 1,2016-059E,2026-07-16T10:51:15.188832,14.67693916,.00298572,97.8177,195.4092,111.8969,248.5416,0,U,41787,999,52400,.5297533E-4,.257E-5,0
SCATSAT 1,2016-059H,2026-07-16T15:09:55.472256,14.79589288,.00553158,98.1177,261.7000,151.9832,208.4376,0,U,41790,999,10594,.89739129E-4,.633E-5,0
GOKTURK 1A,2016-073A,2026-07-16T15:49:19.219008,14.62792836,.00014006,98.1217,91.8670,82.0698,278.0663,0,U,41875,999,51313,-.12225554E-4,-.109E-5,0
RESOURCESAT-2A,2016-074A,2026-07-16T15:09:13.963968,14.21608825,.000237,98.7523,270.8937,25.0271,335.1021,0,U,41877,999,49848,.64306584E-4,.97E-6,0
CARTOSAT-2D,2017-008A,2026-07-16T14:23:17.479968,15.19291175,.00061207,97.4091,256.3533,134.0911,226.0829,0,U,41948,999,52204,.10591201E-3,.2168E-4,0
SENTINEL-2B,2017-013A,2026-07-16T13:52:31.232064,14.30816233,.00012089,98.5688,271.9365,89.6379,270.4942,0,U,42063,999,48884,.11744132E-3,.264E-5,0
CARTOSAT-2E,2017-036C,2026-07-16T14:48:54.885888,15.19263372,.00033658,97.4260,256.9321,182.7217,177.4000,0,U,42767,999,50261,.13522202E-3,.2783E-4,0
FORMOSAT-5,2017-049A,2026-07-16T13:39:28.568160,14.50908031,.00112475,98.2246,272.2249,359.6445,0.4740,0,U,42920,999,47093,.20345358E-4,.37E-6,0
SENTINEL-5P,2017-064A,2026-07-16T10:53:04.341408,14.19523387,.00011518,98.7929,139.3777,93.3196,266.8112,0,U,42969,999,45371,.25784451E-4,.1E-6,0
SKYSAT-C11,2017-068A,2026-07-16T09:31:28.173504,15.59366183,.00011739,97.4384,347.5367,158.2264,201.9043,0,U,42987,999,48779,.22187836E-3,.17397E-3,0
SKYSAT-C10,2017-068B,2026-07-16T15:06:16.636608,15.35133944,.00014906,97.4544,334.7788,111.2984,248.8418,0,U,42988,999,48687,.18041862E-3,.6069E-4,0
SKYSAT-C9,2017-068C,2026-07-16T09:03:38.156544,15.42230876,.00085379,97.4463,335.7422,40.9281,319.2606,0,U,42989,999,48725,.16421948E-3,.6972E-4,0
SKYSAT-C8,2017-068D,2026-07-16T08:38:40.632000,15.37504120,.00012232,97.4560,334.4189,104.1134,256.0246,0,U,42990,999,48679,.14988914E-3,.5429E-4,0
SKYSAT-C7,2017-068E,2026-07-16T14:45:40.406400,15.37458346,.00056155,97.4572,335.6692,16.6031,343.5396,0,U,42991,999,48689,.15968674E-3,.5783E-4,0
SKYSAT-C6,2017-068F,2026-07-16T08:48:32.999904,15.34180902,.00050728,97.4609,335.2658,86.5416,273.6407,0,U,42992,999,48679,.14435444E-3,.4695E-4,0
CARTOSAT-2F,2018-004A,2026-07-16T15:35:52.724256,15.19179170,.00023652,97.4770,256.9945,129.4964,230.6480,0,U,43111,999,47180,.10567428E-3,.2154E-4,0
GAOFEN-1 02,2018-031A,2026-07-16T15:26:19.788576,14.76472621,.00014936,98.0514,260.0858,279.0105,81.0935,0,U,43259,999,44704,.2868537E-4,.148E-5,0
GAOFEN-1 03,2018-031B,2026-07-16T14:54:48.273984,14.76463529,.00023009,98.0503,259.9189,11.8388,348.2875,0,U,43260,999,44703,.49547031E-4,.293E-5,0
GAOFEN-1 04,2018-031D,2026-07-16T14:19:48.301248,14.76472467,.00012365,98.0515,260.0893,54.7014,305.4312,0,U,43262,999,44702,.80587815E-4,.509E-5,0
SENTINEL-3B,2018-039A,2026-07-16T05:21:47.464128,14.26736511,.00011661,98.6236,264.3371,119.9543,240.1753,0,U,43437,999,42826,.36498009E-4,.45E-6,0
GAOFEN-5 01,2018-043A,2026-07-16T10:48:19.627488,14.60623792,.00020238,98.4591,169.6546,29.5494,330.5819,0,U,43461,999,43596,.360783E-4,.126E-5,0
GAOFEN-6,2018-048A,2026-07-16T14:52:23.833920,14.76386763,.00121255,98.0958,260.3251,77.5152,282.7414,0,U,43484,999,43773,.13337708E-3,.875E-5,0
