SKYSAT-C1               
1 41601U 16040C   26197.52203130  .00005110  00000+0  14436-3 0  9991
2 41601  96.9547 227.6581 0000243 252.6645 107.4574 15.36761755562371
LAPAN-A3                
1 41603U 16040E   26197.62588426  .00001714  00000+0  55575-4 0  9994
2 41603  97.1506 192.8099 0008243 269.8538  90.1760 15.33282837559329
GAOFEN-3                
1 41727U 16049A   26197.63897907 -.00000144  00000+0 -30616-4 0  9995
2 41727  98.4011 204.9808 0001761  83.4546 276.6845 14.42218316522898
SKYSAT-C4               
1 41771U 16058B   26197.53072027  .00010806  00000+0  19800-3 0  9996
2 41771  96.9160 218.0900 0003469 115.6545 244.5066 15.49464942550018
SKYSAT-C5               
1 41772U 16058C   26197.05944819  .00003999  00000+0  12489-3 0  9992
2 41772  97.0452 236.4040 0002639 158.1858 201.9499 15.33726186548176
SKYSAT-C2               
1 41773U 16058D   26197.51871684  .00006986  00000+0  16200-3 0  9997
2 41773  97.0156 218.5207 0001226 347.0045  13.1171 15.42698972549578
SKYSAT-C3               
1 41774U 16058E   26197.07149359  .00014988  00000+0  23540-3 0  9992
2 41774  96.8989 226.8279 0002558 131.8662 228.2811 15.53733168550597
ALSAT-1B                
1 41785U 16059C   26197.60015184  .00000523  00000+0  90114-4 0  9994
2 41785  97.7749 205.0950 0010381 125.7066 234.5110 14.72296311524903
PATHFINDER 1            
1 41787U 16059E   26197.45225913  .00000257  00000+0  52975-4 0  9999
2 41787  97.8177 195.4092 0029857 111.8969 248.5416 14.67693916524007
SCATSAT 1               
1 41790U 16059H   26197.63189204  .00000633  00000+0  89739-4 0  9991
2 41790  98.1177 261.7000 0055315 151.9832 208.4376 14.79589288105940
GOKTURK 1A              
1 41875U 16073A   26197.65925022 -.00000109  00000+0 -12226-4 0  9996
2 41875  98.1217  91.8670 0001400  82.0698 278.0663 14.62792836513137
RESOURCESAT-2A          
1 41877U 16074A   26197.63141162  .00000097  00000+0  64307-4 0  9993
2 41877  98.7523 270.8937 0002370  25.0271 335.1021 14.21608825498483
CARTOSAT-2D             
1 41948U 17008A   26197.59950787  .00002168  00000+0  10591-3 0  9992
2 41948  97.4091 256.3533 0006120 134.0911 226.0829 15.19291175522046
SENTINEL-2B             
1 42063U 17013A   26197.57813926  .00000264  00000+0  11744-3 0  9994
2 42063  98.5688 271.9365 0001208  89.6379 270.4942 14.30816233488848
CARTOSAT-2E             
1 42767U 17036C   26197.61730192  .00002783  00000+0  13522-3 0  9992
2 42767  97.4260 256.9321 0003365 182.7217 177.4000 15.19263372502611
FORMOSAT-5              
1 42920U 17049A   26197.56908065  .00000037  00000+0  20345-4 0  9999
2 42920  98.2246 272.2249 0011247 359.6445   0.4740 14.50908031470938
SENTINEL-5P             
1 42969U 17064A   26197.45352247  .00000010  00000+0  25784-4 0  9995
2 42969  98.7929 139.3777 0001151  93.3196 266.8112 14.19523387453711
SKYSAT-C11              
1 42987U 17068A   26197.39685386  .00017397  00000+0  22188-3 0  9995
2 42987  97.4384 347.5367 0001173 158.2264 201.9043 15.59366183487793
SKYSAT-C10              
1 42988U 17068B   26197.62935922  .00006069  00000+0  18042-3 0  9994
2 42988  97.4544 334.7788 0001490 111.2984 248.8418 15.35133944486872
SKYSAT-C9               
1 42989U 17068C   26197.37752496  .00006972  00000+0  16422-3 0  9993
2 42989  97.4463 335.7422 0008537  40.9281 319.2606 15.42230876487251
SKYSAT-C8               
1 42990U 17068D   26197.36019250  .00005429  00000+0  14989-3 0  9990
2 42990  97.4560 334.4189 0001223 104.1134 256.0246 15.37504120486798
SKYSAT-C7               
1 42991U 17068E   26197.61505100  .00005783  00000+0  15969-3 0  9995
2 42991  97.4572 335.6692 0005615  16.6031 343.5396 15.37458346486893
SKYSAT-C6               
1 42992U 17068F   26197.36704861  .00004695  00000+0  14435-3 0  9991
2 42992  97.4609 335.2658 0005072  86.5416 273.6407 15.34180902486795
CARTOSAT-2F             
1 43111U 18004A   26197.64991579  .00002154  00000+0  10567-3 0  9991
2 43111  97.4770 256.9945 0002365 129.4964 230.6480 15.19179170471801
GAOFEN-1 02             
1 43259U 18031A   26197.64328459  .00000148  00000+0  28685-4 0  9997
2 43259  98.0514 260.0858 0001493 279.0105  81.0935 14.76472621447047
GAOFEN-1 03             
1 43260U 18031B   26197.62139206  .00000293  00000+0  49547-4 0  9998
2 43260  98.0503 259.9189 0002300  11.8388 348.2875 14.76463529447031
GAOFEN-1 04             
1 43262U 18031D   26197.59708682  .00000509  00000+0  80588-4 0  9996
2 43262  98.0515 260.0893 0001236  54.7014 305.4312 14.76472467447021
SENTINEL-3B             
1 43437U 18039A   26197.22346602  .00000045  00000+0  36498-4 0  9994
2 43437  98.6236 264.3371 0001166 119.9543 240.1753 14.26736511428269
GAOFEN-5 01             
1 43461U 18043A   26197.45022717  .00000126  00000+0  36078-4 0  9993
2 43461  98.4591 169.6546 0002023  29.5494 330.5819 14.60623792435969
GAOFEN-6                
1 43484U 18048A   26197.61972030  .00000875  00000+0  13338-3 0  9997
2 43484  98.0958 260.3251 0012125  77.5152 282.7414 14.76386763437734
